{
  "type": "FeatureCollection",
  "features": [
    {
      "type": "Feature",
      "properties": {
        "norad_id": 33822,
        "name": "COSMOS 2251 DEB",
        "group": "cosmos-2251-debris",
        "lat": 9.98631104055733,
        "lon": -145.91814048331304,
        "alt_km": 888.1858224832076,
        "timestamp": "2025-12-02T19:35:50.947159+00:00",
        "meta_object_name": "COSMOS 2251 DEB",
        "meta_object_id": "1993-036BP",
        "meta_epoch": "2025-12-02T03:09:17.363808",
        "meta_mean_motion": 14.12986397,
        "meta_eccentricity": 0.01540583,
        "meta_inclination": 74.0703,
        "meta_ra_of_asc_node": 212.4081,
        "meta_arg_of_pericenter": 261.1851,
        "meta_mean_anomaly": 224.0386,
        "meta_ephemeris_type": 0,
        "meta_classification_type": "U",
        "meta_norad_cat_id": 33822,
        "meta_element_set_no": 999,
        "meta_rev_at_epoch": 85904,
        "meta_bstar": 0.0014509558,
        "meta_mean_motion_dot": 3.003e-05,
        "meta_mean_motion_ddot": 0,
        "tle_line1": "1 33822U 93036BP  25336.13145097  .00003003  00000+0  14510-2 0  9996",
        "tle_line2": "2 33822  74.0703 212.4081 0154058 261.1851 224.0386 14.12986397859047"
      },
      "geometry": {
        "type": "Point",
        "coordinates": [
          -145.91814048331304,
          9.98631104055733
        ]
      }
    },
    {
      "type": "Feature",
      "properties": {
        "norad_id": 33823,
        "name": "COSMOS 2251 DEB",
        "group": "cosmos-2251-debris",
        "lat": -23.59483795886828,
        "lon": 159.43034600356555,
        "alt_km": 788.0722950345862,
        "timestamp": "2025-12-02T19:35:50.947169+00:00",
        "meta_object_name": "COSMOS 2251 DEB",
        "meta_object_id": "1993-036BQ",
        "meta_epoch": "2025-12-02T06:51:19.414368",
        "meta_mean_motion": 13.98909048,
        "meta_eccentricity": 0.0209247,
        "meta_inclination": 73.8087,
        "meta_ra_of_asc_node": 167.6512,
        "meta_arg_of_pericenter": 294.4982,
        "meta_mean_anomaly": 246.6558,
        "meta_ephemeris_type": 0,
        "meta_classification_type": "U",
        "meta_norad_cat_id": 33823,
        "meta_element_set_no": 999,
        "meta_rev_at_epoch": 85463,
        "meta_bstar": 0.00091011,
        "meta_mean_motion_dot": 1.557e-05,
        "meta_mean_motion_ddot": 0,
        "tle_line1": "1 33823U 93036BQ  25336.28564137  .00001557  00000+0  91011-3 0  9997",
        "tle_line2": "2 33823  73.8087 167.6512 0209247 294.4982 246.6558 13.98909048854637"
      },
      "geometry": {
        "type": "Point",
        "coordinates": [
          159.43034600356555,
          -23.59483795886828
        ]
      }
    },
    {
      "type": "Feature",
      "properties": {
        "norad_id": 33825,
        "name": "COSMOS 2251 DEB",
        "group": "cosmos-2251-debris",
        "lat": -19.020684220892978,
        "lon": 41.40297702731674,
        "alt_km": 619.2228178013311,
        "timestamp": "2025-12-02T19:35:50.947180+00:00",
        "meta_object_name": "COSMOS 2251 DEB",
        "meta_object_id": "1993-036BS",
        "meta_epoch": "2025-12-02T11:33:51.368256",
        "meta_mean_motion": 14.69612794,
        "meta_eccentricity": 0.0084049,
        "meta_inclination": 73.9863,
        "meta_ra_of_asc_node": 47.7352,
        "meta_arg_of_pericenter": 17.4008,
        "meta_mean_anomaly": 353.3323,
        "meta_ephemeris_type": 0,
        "meta_classification_type": "U",
        "meta_norad_cat_id": 33825,
        "meta_element_set_no": 999,
        "meta_rev_at_epoch": 88729,
        "meta_bstar": 0.0010108,
        "meta_mean_motion_dot": 6.316e-05,
        "meta_mean_motion_ddot": 0,
        "tle_line1": "1 33825U 93036BS  25336.48184454  .00006316  00000+0  10108-2 0  9996",
        "tle_line2": "2 33825  73.9863  47.7352 0084049  17.4008 353.3323 14.69612794887297"
      },
      "geometry": {
        "type": "Point",
        "coordinates": [
          41.40297702731674,
          -19.020684220892978
        ]
      }
    },
    {
      "type": "Feature",
      "properties": {
        "norad_id": 33826,
        "name": "COSMOS 2251 DEB",
        "group": "cosmos-2251-debris",
        "lat": 23.339400767547506,
        "lon": -118.55121358402454,
        "alt_km": 673.373890148564,
        "timestamp": "2025-12-02T19:35:50.947195+00:00",
        "meta_object_name": "COSMOS 2251 DEB",
        "meta_object_id": "1993-036BT",
        "meta_epoch": "2025-12-02T12:19:51.663360",
        "meta_mean_motion": 14.51543976,
        "meta_eccentricity": 0.0084444,
        "meta_inclination": 74.0653,
        "meta_ra_of_asc_node": 69.0987,
        "meta_arg_of_pericenter": 116.6182,
        "meta_mean_anomaly": 256.8386,
        "meta_ephemeris_type": 0,
        "meta_classification_type": "U",
        "meta_norad_cat_id": 33826,
        "meta_element_set_no": 999,
        "meta_rev_at_epoch": 87621,
        "meta_bstar": 0.0020061,
        "meta_mean_motion_dot": 8.389e-05,
        "meta_mean_motion_ddot": 0,
        "tle_line1": "1 33826U 93036BT  25336.51379240  .00008389  00000+0  20061-2 0  9991",
        "tle_line2": "2 33826  74.0653  69.0987 0084444 116.6182 256.8386 14.51543976876214"
      },
      "geometry": {
        "type": "Point",
        "coordinates": [
          -118.55121358402454,
          23.339400767547506
        ]
      }
    },
    {
      "type": "Feature",
      "properties": {
        "norad_id": 33828,
        "name": "COSMOS 2251 DEB",
        "group": "cosmos-2251-debris",
        "lat": -44.42910534021826,
        "lon": -119.74249661340201,
        "alt_km": 730.870336713363,
        "timestamp": "2025-12-02T19:35:50.947206+00:00",
        "meta_object_name": "COSMOS 2251 DEB",
        "meta_object_id": "1993-036BV",
        "meta_epoch": "2025-12-02T12:01:50.154816",
        "meta_mean_motion": 14.44273411,
        "meta_eccentricity": 0.002929,
        "meta_inclination": 74.0474,
        "meta_ra_of_asc_node": 257.1271,
        "meta_arg_of_pericenter": 331.6957,
        "meta_mean_anomaly": 143.1298,
        "meta_ephemeris_type": 0,
        "meta_classification_type": "U",
        "meta_norad_cat_id": 33828,
        "meta_element_set_no": 999,
        "meta_rev_at_epoch": 88165,
        "meta_bstar": 0.00073592,
        "meta_mean_motion_dot": 2.517e-05,
        "meta_mean_motion_ddot": 0,
        "tle_line1": "1 33828U 93036BV  25336.50127494  .00002517  00000+0  73592-3 0  9999",
        "tle_line2": "2 33828  74.0474 257.1271 0029290 331.6957 143.1298 14.44273411881650"
      },
      "geometry": {
        "type": "Point",
        "coordinates": [
          -119.74249661340201,
          -44.42910534021826
        ]
      }
    },
    {
      "type": "Feature",
      "properties": {
        "norad_id": 33830,
        "name": "COSMOS 2251 DEB",
        "group": "cosmos-2251-debris",
        "lat": 65.10917317479655,
        "lon": 31.71487828718408,
        "alt_km": 636.7593984501555,
        "timestamp": "2025-12-02T19:35:50.947217+00:00",
        "meta_object_name": "COSMOS 2251 DEB",
        "meta_object_id": "1993-036BX",
        "meta_epoch": "2025-12-02T05:09:04.004352",
        "meta_mean_motion": 14.76665962,
        "meta_eccentricity": 0.00421462,
        "meta_inclination": 74.033,
        "meta_ra_of_asc_node": 250.9965,
        "meta_arg_of_pericenter": 13.3553,
        "meta_mean_anomaly": 136.9259,
        "meta_ephemeris_type": 0,
        "meta_classification_type": "U",
        "meta_norad_cat_id": 33830,
        "meta_element_set_no": 999,
        "meta_rev_at_epoch": 89316,
        "meta_bstar": 0.001242598,
        "meta_mean_motion_dot": 8.796e-05,
        "meta_mean_motion_ddot": 0,
        "tle_line1": "1 33830U 93036BX  25336.21462968  .00008796  00000+0  12426-2 0  9991",
        "tle_line2": "2 33830  74.0330 250.9965 0042146  13.3553 136.9259 14.76665962893163"
      },
      "geometry": {
        "type": "Point",
        "coordinates": [
          31.71487828718408,
          65.10917317479655
        ]
      }
    },
    {
      "type": "Feature",
      "properties": {
        "norad_id": 33832,
        "name": "COSMOS 2251 DEB",
        "group": "cosmos-2251-debris",
        "lat": 18.359529488603997,
        "lon": -125.65061194882134,
        "alt_km": 700.0723614213348,
        "timestamp": "2025-12-02T19:35:50.947227+00:00",
        "meta_object_name": "COSMOS 2251 DEB",
        "meta_object_id": "1993-036BZ",
        "meta_epoch": "2025-12-02T03:45:36.205056",
        "meta_mean_motion": 14.60422984,
        "meta_eccentricity": 0.00257356,
        "meta_inclination": 74.055,
        "meta_ra_of_asc_node": 230.163,
        "meta_arg_of_pericenter": 263.3167,
        "meta_mean_anomaly": 247.6659,
        "meta_ephemeris_type": 0,
        "meta_classification_type": "U",
        "meta_norad_cat_id": 33832,
        "meta_element_set_no": 999,
        "meta_rev_at_epoch": 88270,
        "meta_bstar": 0.0015895156,
        "meta_mean_motion_dot": 7.713e-05,
        "meta_mean_motion_ddot": 0,
        "tle_line1": "1 33832U 93036BZ  25336.15666904  .00007713  00000+0  15895-2 0  9993",
        "tle_line2": "2 33832  74.0550 230.1630 0025735 263.3167 247.6659 14.60422984882701"
      },
      "geometry": {
        "type": "Point",
        "coordinates": [
          -125.65061194882134,
          18.359529488603997
        ]
      }
    }
  ]
}